{"type": "FeatureCollection", "features": [ {"type": "Feature", "properties": {"norad_id": 34472, "name": "COSMOS 2251 DEB", "group": "cosmos-2251-debris", "lat": 55.223425796391446, "lon": 103.3551710991135, "alt_km": 1197.466205297149, "timestamp": "2025-12-24T07:45:06.593212+00:00", "meta": {"OBJECT_NAME": "COSMOS 2251 DEB", "OBJECT_ID": "1993-036TR", "EPOCH": "2025-12-23T15:40:46.435008", "MEAN_MOTION": 13.70348923, "ECCENTRICITY": 0.03277595, "INCLINATION": 74.0847, "RA_OF_ASC_NODE": 80.196, "ARG_OF_PERICENTER": 208.8312, "MEAN_ANOMALY": 149.435, "EPHEMERIS_TYPE": 0, "CLASSIFICATION_TYPE": "U", "NORAD_CAT_ID": 34472, "ELEMENT_SET_NO": 999, "REV_AT_EPOCH": 83876, "BSTAR": 0.00065084955, "MEAN_MOTION_DOT": 8.17e-06, "MEAN_MOTION_DDOT": 0}, "tle": {"line1": "1 34472U 93036TR  25357.65331522  .00000817  00000+0  65085-3 0  9992", "line2": "2 34472  74.0847  80.1960 0327759 208.8312 149.4350 13.70348923838761"}}, "geometry": {"type": "Point", "coordinates": [103.3551710991135, 55.223425796391446]}}, {"type": "Feature", "properties": {"norad_id": 34474, "name": "COSMOS 2251 DEB", "group": "cosmos-2251-debris", "lat": -69.85229027368774, "lon": 177.03021524463716, "alt_km": 947.2931235457154, "timestamp": "2025-12-24T07:45:06.593222+00:00", "meta": {"OBJECT_NAME": "COSMOS 2251 DEB", "OBJECT_ID": "1993-036TT", "EPOCH": "2025-12-23T14:16:22.202688", "MEAN_MOTION": 14.06499496, "ECCENTRICITY": 0.01992919, "INCLINATION": 74.0793, "RA_OF_ASC_NODE": 307.227, "ARG_OF_PERICENTER": 18.4501, "MEAN_ANOMALY": 154.8344, "EPHEMERIS_TYPE": 0, "CLASSIFICATION_TYPE": "U", "NORAD_CAT_ID": 34474, "ELEMENT_SET_NO": 999, "REV_AT_EPOCH": 85661, "BSTAR": 0.0024860737, "MEAN_MOTION_DOT": 4.903e-05, "MEAN_MOTION_DDOT": 0}, "tle": {"line1": "1 34474U 93036TT  25357.59470142  .00004903  00000+0  24861-2 0  9995", "line2": "2 34474  74.0793 307.2270 0199291  18.4501 154.8344 14.06499496856612"}}, "geometry": {"type": "Point", "coordinates": [177.03021524463716, -69.85229027368774]}}, {"type": "Feature", "properties": {"norad_id": 34476, "name": "COSMOS 2251 DEB", "group": "cosmos-2251-debris", "lat": -59.01755519185643, "lon": 34.447064484440325, "alt_km": 736.161016801364, "timestamp": "2025-12-24T07:45:06.593232+00:00", "meta": {"OBJECT_NAME": "COSMOS 2251 DEB", "OBJECT_ID": "1993-036TV", "EPOCH": "2025-12-23T04:15:02.567520", "MEAN_MOTION": 13.82132648, "ECCENTRICITY": 0.03222242, "INCLINATION": 74.0063, "RA_OF_ASC_NODE": 64.9101, "ARG_OF_PERICENTER": 282.3311, "MEAN_ANOMALY": 74.192, "EPHEMERIS_TYPE": 0, "CLASSIFICATION_TYPE": "U", "NORAD_CAT_ID": 34476, "ELEMENT_SET_NO": 999, "REV_AT_EPOCH": 83782, "BSTAR": 0.0037798313, "MEAN_MOTION_DOT": 6.03e-05, "MEAN_MOTION_DDOT": 0}, "tle": {"line1": "1 34476U 93036TV  25357.17711305  .00006030  00000+0  37798-2 0  9996", "line2": "2 34476  74.0063  64.9101 0322224 282.3311  74.1920 13.82132648837821"}}, "geometry": {"type": "Point", "coordinates": [34.447064484440325, -59.01755519185643]}}, {"type": "Feature", "properties": {"norad_id": 34477, "name": "COSMOS 2251 DEB", "group": "cosmos-2251-debris", "lat": 62.27390746840985, "lon": 80.5687206116001, "alt_km": 749.1770941839577, "timestamp": "2025-12-24T07:45:06.593242+00:00", "meta": {"OBJECT_NAME": "COSMOS 2251 DEB", "OBJECT_ID": "1993-036TW", "EPOCH": "2025-12-23T21:48:05.340960", "MEAN_MOTION": 14.56937216, "ECCENTRICITY": 0.00767167, "INCLINATION": 73.9783, "RA_OF_ASC_NODE": 48.2172, "ARG_OF_PERICENTER": 233.3063, "MEAN_ANOMALY": 180.3626, "EPHEMERIS_TYPE": 0, "CLASSIFICATION_TYPE": "U", "NORAD_CAT_ID": 34477, "ELEMENT_SET_NO": 999, "REV_AT_EPOCH": 88788, "BSTAR": 0.00075954612, "MEAN_MOTION_DOT": 3.52e-05, "MEAN_MOTION_DDOT": 0}, "tle": {"line1": "1 34477U 93036TW  25357.90839515  .00003520  00000+0  75955-3 0  9991", "line2": "2 34477  73.9783  48.2172 0076716 233.3063 180.3626 14.56937216887884"}}, "geometry": {"type": "Point", "coordinates": [80.5687206116001, 62.27390746840985]}}, {"type": "Feature", "properties": {"norad_id": 34478, "name": "COSMOS 2251 DEB", "group": "cosmos-2251-debris", "lat": -61.51302269973765, "lon": -48.7861674168686, "alt_km": 547.4629955757337, "timestamp": "2025-12-24T07:45:06.593253+00:00", "meta": {"OBJECT_NAME": "COSMOS 2251 DEB", "OBJECT_ID": "1993-036TX", "EPOCH": "2025-12-23T17:58:35.156064", "MEAN_MOTION": 15.08914731, "ECCENTRICITY": 0.00336981, "INCLINATION": 74.0416, "RA_OF_ASC_NODE": 344.2204, "ARG_OF_PERICENTER": 201.8966, "MEAN_ANOMALY": 215.0748, "EPHEMERIS_TYPE": 0, "CLASSIFICATION_TYPE": "U", "NORAD_CAT_ID": 34478, "ELEMENT_SET_NO": 999, "REV_AT_EPOCH": 89139, "BSTAR": 0.0030597457, "MEAN_MOTION_DOT": 0.00049206, "MEAN_MOTION_DDOT": 0}, "tle": {"line1": "1 34478U 93036TX  25357.74901801  .00049206  00000+0  30597-2 0  9995", "line2": "2 34478  74.0416 344.2204 0033698 201.8966 215.0748 15.08914731891396"}}, "geometry": {"type": "Point", "coordinates": [-48.7861674168686, -61.51302269973765]}}, {"type": "Feature", "properties": {"norad_id": 34481, "name": "COSMOS 2251 DEB", "group": "cosmos-2251-debris", "lat": -31.192331261308254, "lon": 22.216658565906688, "alt_km": 815.9791921419728, "timestamp": "2025-12-24T07:45:06.593263+00:00", "meta": {"OBJECT_NAME": "COSMOS 2251 DEB", "OBJECT_ID": "1993-036UA", "EPOCH": "2025-12-23T22:09:25.895232", "MEAN_MOTION": 14.32588849, "ECCENTRICITY": 0.00702856, "INCLINATION": 73.979, "RA_OF_ASC_NODE": 32.9669, "ARG_OF_PERICENTER": 205.2238, "MEAN_ANOMALY": 220.6414, "EPHEMERIS_TYPE": 0, "CLASSIFICATION_TYPE": "U", "NORAD_CAT_ID": 34481, "ELEMENT_SET_NO": 999, "REV_AT_EPOCH": 87609, "BSTAR": 0.00057332643, "MEAN_MOTION_DOT": 1.573e-05, "MEAN_MOTION_DDOT": 0}, "tle": {"line1": "1 34481U 93036UA  25357.92321638  .00001573  00000+0  57333-3 0  9996", "line2": "2 34481  73.9790  32.9669 0070285 205.2238 220.6414 14.32588849876097"}}, "geometry": {"type": "Point", "coordinates": [22.216658565906688, -31.192331261308254]}}, {"type": "Feature", "properties": {"norad_id": 34482, "name": "COSMOS 2251 DEB", "group": "cosmos-2251-debris", "lat": -44.47682711329044, "lon": 37.48578362222514, "alt_km": 642.8687730671627, "timestamp": "2025-12-24T07:45:06.593273+00:00", "meta": {"OBJECT_NAME": "COSMOS 2251 DEB", "OBJECT_ID": "1993-036UB", "EPOCH": "2025-12-23T00:13:02.883360", "MEAN_MOTION": 14.69368319, "ECCENTRICITY": 0.00444168, "INCLINATION": 74.036, "RA_OF_ASC_NODE": 203.7053, "ARG_OF_PERICENTER": 261.8184, "MEAN_ANOMALY": 217.6247, "EPHEMERIS_TYPE": 0, "CLASSIFICATION_TYPE": "U", "NORAD_CAT_ID": 34482, "ELEMENT_SET_NO": 999, "REV_AT_EPOCH": 88338, "BSTAR": 0.0017930749, "MEAN_MOTION_DOT": 0.00010746, "MEAN_MOTION_DDOT": 0}, "tle": {"line1": "1 34482U 93036UB  25357.00906115  .00010746  00000+0  17931-2 0  9996", "line2": "2 34482  74.0360 203.7053 0044416 261.8184 217.6247 14.69368319883381"}}, "geometry": {"type": "Point", "coordinates": [37.48578362222514, -44.47682711329044]}}, {"type": "Feature", "properties": {"norad_id": 34544, "name": "COSMOS 2251 DEB", "group": "cosmos-2251-debris", "lat": 17.383044925854836, "lon": -169.53976255281353, "alt_km": 1331.9691921149142, "timestamp": "2025-12-24T07:45:06.593283+00:00", "meta": {"OBJECT_NAME": "COSMOS 2251 DEB", "OBJECT_ID": "1993-036UE", "EPOCH": "2025-12-22T13:17:43.726848", "MEAN_MOTION": 13.54671118, "ECCENTRICITY": 0.03836445, "INCLINATION": 73.9138, "RA_OF_ASC_NODE": 188.1407, "ARG_OF_PERICENTER": 214.797, "MEAN_ANOMALY": 178.3987, "EPHEMERIS_TYPE": 0, "CLASSIFICATION_TYPE": "U", "NORAD_CAT_ID": 34544, "ELEMENT_SET_NO": 999, "REV_AT_EPOCH": 83015, "BSTAR": 0.00039748277, "MEAN_MOTION_DOT": 4.13e-06, "MEAN_MOTION_DDOT": 0}, "tle": {"line1": "1 34544U 93036UE  25356.55397832  .00000413  00000+0  39748-3 0  9995", "line2": "2 34544  73.9138 188.1407 0383644 214.7970 178.3987 13.54671118830157"}}, "geometry": {"type": "Point", "coordinates": [-169.53976255281353, 17.383044925854836]}}, {"type": "Feature", "properties": {"norad_id": 34546, "name": "COSMOS 2251 DEB", "group": "cosmos-2251-debris", "lat": 30.699705751800703, "lon": 37.798261683707, "alt_km": 752.4059198936675, "timestamp": "2025-12-24T07:45:06.593293+00:00", "meta": {"OBJECT_NAME": "COSMOS 2251 DEB", "OBJECT_ID": "1993-036UG", "EPOCH": "2025-12-23T18:18:47.454336", "MEAN_MOTION": 14.45453085, "ECCENTRICITY": 0.00220512, "INCLINATION": 74.0295, "RA_OF_ASC_NODE": 228.6319, "ARG_OF_PERICENTER": 301.1754, "MEAN_ANOMALY": 174.2118, "EPHEMERIS_TYPE": 0, "CLASSIFICATION_TYPE": "U", "NORAD_CAT_ID": 34546, "ELEMENT_SET_NO": 999, "REV_AT_EPOCH": 88185, "BSTAR": 0.00046764982, "MEAN_MOTION_DOT": 1.625e-05, "MEAN_MOTION_DDOT": 0}, "tle": {"line1": "1 34546U 93036UG  25357.76304924  .00001625  00000+0  46765-3 0  9994", "line2": "2 34546  74.0295 228.6319 0022051 301.1754 174.2118 14.45453085881856"}}, "geometry": {"type": "Point", "coordinates": [37.798261683707, 30.699705751800703]}}, {"type": "Feature", "properties": {"norad_id": 34547, "name": "COSMOS 2251 DEB", "group": "cosmos-2251-debris", "lat": 21.60241778530237, "lon": 84.68285162083328, "alt_km": 660.0889338780908, "timestamp": "2025-12-24T07:45:06.593304+00:00", "meta": {"OBJECT_NAME": "COSMOS 2251 DEB", "OBJECT_ID": "1993-036UH", "EPOCH": "2025-12-23T12:05:02.097600", "MEAN_MOTION": 14.72566413, "ECCENTRICITY": 0.00162583, "INCLINATION": 74.0313, "RA_OF_ASC_NODE": 79.7674, "ARG_OF_PERICENTER": 157.405, "MEAN_ANOMALY": 202.7841, "EPHEMERIS_TYPE": 0, "CLASSIFICATION_TYPE": "U", "NORAD_CAT_ID": 34547, "ELEMENT_SET_NO": 999, "REV_AT_EPOCH": 88680, "BSTAR": 0.0018043313, "MEAN_MOTION_DOT": 0.00011487, "MEAN_MOTION_DDOT": 0}, "tle": {"line1": "1 34547U 93036UH  25357.50349650  .00011487  00000+0  18043-2 0  9996", "line2": "2 34547  74.0313  79.7674 0016258 157.4050 202.7841 14.72566413886800"}}, "geometry": {"type": "Point", "coordinates": [84.68285162083328, 21.60241778530237]}}]}